[{"OBJECT_NAME":"KUIPER-00085","OBJECT_ID":"2025-151R","EPOCH":"2026-03-04T22:40:59.788416","MEAN_MOTION":14.79941382,"ECCENTRICITY":8.37e-5,"INCLINATION":51.9037,"RA_OF_ASC_NODE":309.1096,"ARG_OF_PERICENTER":106.9213,"MEAN_ANOMALY":253.1841,"EPHEMERIS_TYPE":0,"CLASSIFICATION_TYPE":"U","NORAD_CAT_ID":64831,"ELEMENT_SET_NO":999,"REV_AT_EPOCH":3477,"BSTAR":0.00051803,"MEAN_MOTION_DOT":3.731e-5,"MEAN_MOTION_DDOT":0},{"OBJECT_NAME":"KUIPER-00086","OBJECT_ID":"2025-151S","EPOCH":"2026-03-05T03:17:10.701888","MEAN_MOTION":14.79941878,"ECCENTRICITY":6.74e-5,"INCLINATION":51.9039,"RA_OF_ASC_NODE":318.2328,"ARG_OF_PERICENTER":227.0132,"MEAN_ANOMALY":133.0774,"EPHEMERIS_TYPE":0,"CLASSIFICATION_TYPE":"U","NORAD_CAT_ID":64832,"ELEMENT_SET_NO":999,"REV_AT_EPOCH":3466,"BSTAR":0.00056298,"MEAN_MOTION_DOT":4.074e-5,"MEAN_MOTION_DDOT":0},{"OBJECT_NAME":"KUIPER-00087","OBJECT_ID":"2025-151T","EPOCH":"2026-03-05T04:00:01.999584","MEAN_MOTION":14.80029327,"ECCENTRICITY":0.0001027,"INCLINATION":51.8989,"RA_OF_ASC_NODE":300.5837,"ARG_OF_PERICENTER":46.1425,"MEAN_ANOMALY":11.7378,"EPHEMERIS_TYPE":0,"CLASSIFICATION_TYPE":"U","NORAD_CAT_ID":64833,"ELEMENT_SET_NO":999,"REV_AT_EPOCH":548,"BSTAR":5.1204e-5,"MEAN_MOTION_DOT":1.7e-6,"MEAN_MOTION_DDOT":0},{"OBJECT_NAME":"KUIPER-00089","OBJECT_ID":"2025-151U","EPOCH":"2026-03-05T01:57:22.759488","MEAN_MOTION":14.79796333,"ECCENTRICITY":5.42e-5,"INCLINATION":51.9013,"RA_OF_ASC_NODE":305.953,"ARG_OF_PERICENTER":96.6054,"MEAN_ANOMALY":263.497,"EPHEMERIS_TYPE":0,"CLASSIFICATION_TYPE":"U","NORAD_CAT_ID":64834,"ELEMENT_SET_NO":999,"REV_AT_EPOCH":3483,"BSTAR":0.00041426,"MEAN_MOTION_DOT":2.928e-5,"MEAN_MOTION_DDOT":0},{"OBJECT_NAME":"KUIPER-00090","OBJECT_ID":"2025-151V","EPOCH":"2026-03-05T00:33:46.611360","MEAN_MOTION":14.79935165,"ECCENTRICITY":6.51e-5,"INCLINATION":51.8985,"RA_OF_ASC_NODE":298.758,"ARG_OF_PERICENTER":104.8455,"MEAN_ANOMALY":255.2579,"EPHEMERIS_TYPE":0,"CLASSIFICATION_TYPE":"U","NORAD_CAT_ID":64835,"ELEMENT_SET_NO":999,"REV_AT_EPOCH":3492,"BSTAR":0.00041624,"MEAN_MOTION_DOT":2.954e-5,"MEAN_MOTION_DDOT":0},{"OBJECT_NAME":"KUIPER-00091","OBJECT_ID":"2025-151W","EPOCH":"2026-03-05T02:04:06.741696","MEAN_MOTION":14.79823527,"ECCENTRICITY":9.97e-5,"INCLINATION":51.9004,"RA_OF_ASC_NODE":303.4611,"ARG_OF_PERICENTER":107.5983,"MEAN_ANOMALY":252.5088,"EPHEMERIS_TYPE":0,"CLASSIFICATION_TYPE":"U","NORAD_CAT_ID":64836,"ELEMENT_SET_NO":999,"REV_AT_EPOCH":3486,"BSTAR":0.00073847,"MEAN_MOTION_DOT":5.398e-5,"MEAN_MOTION_DDOT":0},{"OBJECT_NAME":"KUIPER-00092","OBJECT_ID":"2025-151X","EPOCH":"2026-03-05T01:51:32.659776","MEAN_MOTION":14.79938896,"ECCENTRICITY":0.0001118,"INCLINATION":51.9013,"RA_OF_ASC_NODE":310.9871,"ARG_OF_PERICENTER":137.1537,"MEAN_ANOMALY":222.9513,"EPHEMERIS_TYPE":0,"CLASSIFICATION_TYPE":"U","NORAD_CAT_ID":64837,"ELEMENT_SET_NO":999,"REV_AT_EPOCH":3597,"BSTAR":-0.00040056,"MEAN_MOTION_DOT":-3.274e-5,"MEAN_MOTION_DDOT":0},{"OBJECT_NAME":"KUIPER-00093","OBJECT_ID":"2025-151Y","EPOCH":"2026-03-04T03:06:06.271200","MEAN_MOTION":14.80010428,"ECCENTRICITY":9.197e-5,"INCLINATION":51.9013,"RA_OF_ASC_NODE":317.6654,"ARG_OF_PERICENTER":92.3229,"MEAN_ANOMALY":267.7838,"EPHEMERIS_TYPE":0,"CLASSIFICATION_TYPE":"U","NORAD_CAT_ID":64838,"ELEMENT_SET_NO":999,"REV_AT_EPOCH":3458,"BSTAR":0.00094286907,"MEAN_MOTION_DOT":6.987e-5,"MEAN_MOTION_DDOT":0},{"OBJECT_NAME":"KUIPER-00094","OBJECT_ID":"2025-151Z","EPOCH":"2026-03-04T23:53:01.567392","MEAN_MOTION":15.04235594,"ECCENTRICITY":0.0005365,"INCLINATION":51.8887,"RA_OF_ASC_NODE":283.9396,"ARG_OF_PERICENTER":272.1075,"MEAN_ANOMALY":87.9283,"EPHEMERIS_TYPE":0,"CLASSIFICATION_TYPE":"U","NORAD_CAT_ID":64839,"ELEMENT_SET_NO":999,"REV_AT_EPOCH":3513,"BSTAR":0.0007176,"MEAN_MOTION_DOT":9.831e-5,"MEAN_MOTION_DDOT":0},{"OBJECT_NAME":"KUIPER-00081","OBJECT_ID":"2025-171A","EPOCH":"2026-03-04T23:52:28.449408","MEAN_MOTION":14.79900395,"ECCENTRICITY":8.66e-5,"INCLINATION":51.9031,"RA_OF_ASC_NODE":168.8327,"ARG_OF_PERICENTER":60.4919,"MEAN_ANOMALY":299.6129,"EPHEMERIS_TYPE":0,"CLASSIFICATION_TYPE":"U","NORAD_CAT_ID":65132,"ELEMENT_SET_NO":999,"REV_AT_EPOCH":3234,"BSTAR":-0.0014627,"MEAN_MOTION_DOT":-0.00011344,"MEAN_MOTION_DDOT":0},{"OBJECT_NAME":"KUIPER-00088","OBJECT_ID":"2025-171B","EPOCH":"2026-03-05T04:00:01.999584","MEAN_MOTION":14.7640532,"ECCENTRICITY":2.68e-5,"INCLINATION":51.8992,"RA_OF_ASC_NODE":185.4941,"ARG_OF_PERICENTER":31.0126,"MEAN_ANOMALY":310.3934,"EPHEMERIS_TYPE":0,"CLASSIFICATION_TYPE":"U","NORAD_CAT_ID":65133,"ELEMENT_SET_NO":999,"REV_AT_EPOCH":547,"BSTAR":0.005184,"MEAN_MOTION_DOT":0.00036344,"MEAN_MOTION_DDOT":0},{"OBJECT_NAME":"KUIPER-00095","OBJECT_ID":"2025-171C","EPOCH":"2026-03-05T04:00:01.999584","MEAN_MOTION":14.82850844,"ECCENTRICITY":7.89e-5,"INCLINATION":51.897,"RA_OF_ASC_NODE":165.7781,"ARG_OF_PERICENTER":197.9806,"MEAN_ANOMALY":277.803,"EPHEMERIS_TYPE":0,"CLASSIFICATION_TYPE":"U","NORAD_CAT_ID":65134,"ELEMENT_SET_NO":999,"REV_AT_EPOCH":547,"BSTAR":0.0097654,"MEAN_MOTION_DOT":0.00080567,"MEAN_MOTION_DDOT":0},{"OBJECT_NAME":"KUIPER-00096","OBJECT_ID":"2025-171D","EPOCH":"2026-03-05T00:25:39.576288","MEAN_MOTION":14.79931652,"ECCENTRICITY":3.81e-5,"INCLINATION":51.9002,"RA_OF_ASC_NODE":178.7421,"ARG_OF_PERICENTER":134.8506,"MEAN_ANOMALY":225.2487,"EPHEMERIS_TYPE":0,"CLASSIFICATION_TYPE":"U","NORAD_CAT_ID":65135,"ELEMENT_SET_NO":999,"REV_AT_EPOCH":3220,"BSTAR":2.5644e-5,"MEAN_MOTION_DOT":-2.6e-7,"MEAN_MOTION_DDOT":0},{"OBJECT_NAME":"KUIPER-00097","OBJECT_ID":"2025-171E","EPOCH":"2026-03-05T00:21:47.002176","MEAN_MOTION":14.79938842,"ECCENTRICITY":2.42e-5,"INCLINATION":51.8983,"RA_OF_ASC_NODE":181.3779,"ARG_OF_PERICENTER":43.4431,"MEAN_ANOMALY":316.6551,"EPHEMERIS_TYPE":0,"CLASSIFICATION_TYPE":"U","NORAD_CAT_ID":65136,"ELEMENT_SET_NO":999,"REV_AT_EPOCH":3215,"BSTAR":0.00064327,"MEAN_MOTION_DOT":4.687e-5,"MEAN_MOTION_DDOT":0},{"OBJECT_NAME":"KUIPER-00098","OBJECT_ID":"2025-171F","EPOCH":"2026-03-05T00:17:51.347040","MEAN_MOTION":14.79973758,"ECCENTRICITY":0.0001761,"INCLINATION":51.9009,"RA_OF_ASC_NODE":183.7692,"ARG_OF_PERICENTER":144.8493,"MEAN_ANOMALY":215.2586,"EPHEMERIS_TYPE":0,"CLASSIFICATION_TYPE":"U","NORAD_CAT_ID":65137,"ELEMENT_SET_NO":999,"REV_AT_EPOCH":3147,"BSTAR":0.00091957,"MEAN_MOTION_DOT":6.803e-5,"MEAN_MOTION_DDOT":0},{"OBJECT_NAME":"KUIPER-00099","OBJECT_ID":"2025-171G","EPOCH":"2026-03-04T23:46:01.057728","MEAN_MOTION":14.79868925,"ECCENTRICITY":5.95e-5,"INCLINATION":51.9025,"RA_OF_ASC_NODE":173.8602,"ARG_OF_PERICENTER":38.9701,"MEAN_ANOMALY":321.1304,"EPHEMERIS_TYPE":0,"CLASSIFICATION_TYPE":"U","NORAD_CAT_ID":65138,"ELEMENT_SET_NO":999,"REV_AT_EPOCH":3226,"BSTAR":0.00096619,"MEAN_MOTION_DOT":7.141e-5,"MEAN_MOTION_DDOT":0},{"OBJECT_NAME":"KUIPER-00100","OBJECT_ID":"2025-171H","EPOCH":"2026-03-04T11:39:21.788640","MEAN_MOTION":14.79946434,"ECCENTRICITY":4.889e-5,"INCLINATION":51.9016,"RA_OF_ASC_NODE":173.563,"ARG_OF_PERICENTER":96.6064,"MEAN_ANOMALY":263.4954,"EPHEMERIS_TYPE":0,"CLASSIFICATION_TYPE":"U","NORAD_CAT_ID":65139,"ELEMENT_SET_NO":999,"REV_AT_EPOCH":3222,"BSTAR":0.00062281469,"MEAN_MOTION_DOT":4.532e-5,"MEAN_MOTION_DDOT":0}]
