KUIPER-00085            
1 64831U 25151R   26063.94513644  .00003731  00000+0  51803-3 0  9992
2 64831  51.9037 309.1096 0000837 106.9213 253.1841 14.79941382 34770
KUIPER-00086            
1 64832U 25151S   26064.13692942  .00004074  00000+0  56298-3 0  9998
2 64832  51.9039 318.2328 0000674 227.0132 133.0774 14.79941878 34665
KUIPER-00087            
1 64833U 25151T   26064.16668981  .00000170  00000+0  51204-4 0  9994
2 64833  51.8989 300.5837 0001027  46.1425  11.7378 14.80029327  5484
KUIPER-00089            
1 64834U 25151U   26064.08151342  .00002928  00000+0  41426-3 0  9991
2 64834  51.9013 305.9530 0000542  96.6054 263.4970 14.79796333 34833
KUIPER-00090            
1 64835U 25151V   26064.02345615  .00002954  00000+0  41624-3 0  9993
2 64835  51.8985 298.7580 0000651 104.8455 255.2579 14.79935165 34925
KUIPER-00091            
1 64836U 25151W   26064.08618914  .00005398  00000+0  73847-3 0  9992
2 64836  51.9004 303.4611 0000997 107.5983 252.5088 14.79823527 34863
KUIPER-00092            
1 64837U 25151X   26064.07746134 -.00003274  00000+0 -40056-3 0  9997
2 64837  51.9013 310.9871 0001118 137.1537 222.9513 14.79938896 35978
KUIPER-00093            
1 64838U 25151Y   26063.12923925  .00006987  00000+0  94287-3 0  9995
2 64838  51.9013 317.6654 0000919  92.3229 267.7838 14.80010428 34587
KUIPER-00094            
1 64839U 25151Z   26063.99515703  .00009831  00000+0  71760-3 0  9994
2 64839  51.8887 283.9396 0005365 272.1075  87.9283 15.04235594 35139
KUIPER-00081            
1 65132U 25171A   26063.99477372 -.00011344  00000+0 -14627-2 0  9994
2 65132  51.9031 168.8327 0000866  60.4919 299.6129 14.79900395 32349
KUIPER-00088            
1 65133U 25171B   26064.16668981  .00036344  00000+0  51840-2 0  9996
2 65133  51.8992 185.4941 0000268  31.0126 310.3934 14.76405320  5476
KUIPER-00095            
1 65134U 25171C   26064.16668981  .00080567  00000+0  97654-2 0  9996
2 65134  51.8970 165.7781 0000789 197.9806 277.8030 14.82850844  5477
KUIPER-00096            
1 65135U 25171D   26064.01781917 -.00000026  00000+0  25644-4 0  9991
2 65135  51.9002 178.7421 0000381 134.8506 225.2487 14.79931652 32202
KUIPER-00097            
1 65136U 25171E   26064.01512734  .00004687  00000+0  64327-3 0  9997
2 65136  51.8983 181.3779 0000242  43.4431 316.6551 14.79938842 32153
KUIPER-00098            
1 65137U 25171F   26064.01239985  .00006803  00000+0  91957-3 0  9993
2 65137  51.9009 183.7692 0001761 144.8493 215.2586 14.79973758 31476
KUIPER-00099            
1 65138U 25171G   26063.99029002  .00007141  00000+0  96619-3 0  9993
2 65138  51.9025 173.8602 0000595  38.9701 321.1304 14.79868925 32267
KUIPER-00100            
1 65139U 25171H   26063.48566885  .00004532  00000+0  62281-3 0  9992
2 65139  51.9016 173.5630 0000488  96.6064 263.4954 14.79946434 32227
